IRIDIUM 921             
1 24873U 97034E   24344.09974141  .00147325  00000+0  12987-2 0  9999
2 24873  86.3714 200.0510 0002523  48.0379 312.1105 15.68269057502555
IRIDIUM 26              
1 24903U 97043A   24344.50637630  .00000906  00000+0  30015-3 0  9994
2 24903  86.3984 190.2158 0002038  80.0592 280.0835 14.36840557429971
IRIDIUM 22              
1 24907U 97043E   24344.14208170  .00000764  00000+0  25809-3 0  9998
2 24907  86.3989 193.7410 0001967  86.9304 273.2118 14.35686877429492
DUMMY MASS 1            
1 24925U 97048A   24344.15732091  .00000971  00000+0  10614-3 0  9996
2 24925  86.3367 223.1093 0009073  96.9717 263.2540 14.86668027477137
DUMMY MASS 2            
1 24926U 97048B   24343.95329857  .00000963  00000+0  10590-3 0  9990
2 24926  86.3367 224.7759 0009754 106.4597 253.7701 14.86422172476640
IRIDIUM 29              
1 24944U 97051A   24343.95064831  .00000891  00000+0  29927-3 0  9996
2 24944  86.3979 223.6077 0002092  88.7998 271.3439 14.36152388425962
IRIDIUM 33              
1 24946U 97051C   24343.79933074  .00000592  00000+0  20231-3 0  9991
2 24946  86.3895 222.9190 0007625 354.9145   5.1973 14.34679940425443
IRIDIUM 28              
1 24948U 97051E   24344.11734695  .00000857  00000+0  28201-3 0  9997
2 24948  86.3985 221.1626 0002055  70.9282 289.2138 14.37099855426611
